MALLIGYONG-1            
1 58400U 23179A   24218.11539025  .00014858  00000+0  65702-3 0  9990
2 58400  97.3968 104.1359 0002932  62.1937 297.9596 15.21787838 39164
